[{"OBJECT_NAME":"JIAOTONG VDES","OBJECT_ID":"2022-164A","EPOCH":"2026-03-10T00:04:46.178400","MEAN_MOTION":14.45999441,"ECCENTRICITY":0.00085577,"INCLINATION":98.2515,"RA_OF_ASC_NODE":90.8897,"ARG_OF_PERICENTER":269.1792,"MEAN_ANOMALY":90.8419,"EPHEMERIS_TYPE":0,"CLASSIFICATION_TYPE":"U","NORAD_CAT_ID":54588,"ELEMENT_SET_NO":999,"REV_AT_EPOCH":17174,"BSTAR":0.00012084635,"MEAN_MOTION_DOT":3.88e-6,"MEAN_MOTION_DDOT":0},{"OBJECT_NAME":"CZ-4B DEB","OBJECT_ID":"1999-057MY","EPOCH":"2026-03-05T14:54:35.286336","MEAN_MOTION":14.53131114,"ECCENTRICITY":0.0079102,"INCLINATION":98.5072,"RA_OF_ASC_NODE":128.6079,"ARG_OF_PERICENTER":197.1875,"MEAN_ANOMALY":162.6639,"EPHEMERIS_TYPE":0,"CLASSIFICATION_TYPE":"U","NORAD_CAT_ID":28068,"ELEMENT_SET_NO":999,"REV_AT_EPOCH":66916,"BSTAR":0.00066026,"MEAN_MOTION_DOT":2.797e-5,"MEAN_MOTION_DDOT":0}]
